NORAD_CAT_ID,OBJECT_NAME,OBJECT_TYPE,EPOCH,MEAN_MOTION,ECCENTRICITY,INCLINATION,RA_OF_ASC_NODE,ARG_OF_PERICENTER,MEAN_ANOMALY,BSTAR,MEAN_MOTION_DOT,MEAN_MOTION_DDOT,TLE_LINE0,TLE_LINE1,TLE_LINE2,SEMIMAJOR_AXIS,PERIOD,APOGEE,PERIGEE,DECAYED
53705.0,STARLINK-4717,PAYLOAD,2022-10-28 14:00:01,15.73179362,0.0003006,53.2147,8.4082,21.6388,23.9536,0.00032521,0.00045233,0.0,0 STARLINK-4717,1 53705U 22107F   22301.58335648  .00045233  00000-0  32521-3 0  9995,2 53705  53.2147   8.4082 0003006  21.6388  23.9536 15.73179362  1309,6727.954000000002,91.534,351.841,347.797,0.0
53705.0,STARLINK-4717,PAYLOAD,2022-10-28 22:00:01,15.73250441,0.0002781,53.2143,6.7569,17.7429,116.7678,-0.00082645,-0.0011530999999999,0.0,0 STARLINK-4717,1 53705U 22107F   22301.91668981 -.00115310  00000-0 -82645-3 0  9999,2 53705  53.2143   6.7569 0002781  17.7429 116.7678 15.73250441  8591,6727.751,91.53,351.487,347.745,0.0
53705.0,STARLINK-4717,PAYLOAD,2022-10-29 12:00:00,15.73183287,0.0002962,53.2144,3.8715,13.4361,186.6556,0.00067818,0.00095592,0.0,0 STARLINK-4717,1 53705U 22107F   22302.50001157  .00095592  00000-0  67818-3 0  9993,2 53705  53.2144   3.8715 0002962  13.4361 186.6556 15.73183287  1308,6727.943,91.534,351.801,347.815,0.0
53705.0,STARLINK-4717,PAYLOAD,2022-10-29 22:00:01,15.73288041,0.0002836,53.2147,1.8078,11.5479,29.8084,-0.00046622,-0.00065805,0.0,0 STARLINK-4717,1 53705U 22107F   22302.91668981 -.00065805  00000-0 -46622-3 0  9998,2 53705  53.2147   1.8078 0002836  11.5479  29.8084 15.73288041  1308,6727.644,91.528,351.417,347.601,0.0
53705.0,STARLINK-4717,PAYLOAD,2022-10-30 00:00:00,15.73253436,0.0002824,53.2146,1.395,11.4462,142.1093,-9.3812e-05,-0.000138,0.0,0 STARLINK-4717,1 53705U 22107F   22303.00001157 -.00013800  00000-0 -93812-4 0  9997,2 53705  53.2146   1.3950 0002824  11.4462 142.1093 15.73253436  8765,6727.743,91.53,351.5080000000001,347.708,0.0
53705.0,STARLINK-4717,PAYLOAD,2022-10-30 14:00:01,15.73147715,0.0003202,53.2153,358.511,13.5638,205.6695,0.00027892,0.00038623,0.0,0 STARLINK-4717,1 53705U 22107F   22303.58334491  .00038623  00000-0  27892-3 0  9992,2 53705  53.2153 358.5110 0003202  13.5638 205.6695 15.73147715  1305,6728.044,91.536,352.064,347.755,0.0
53705.0,STARLINK-4717,PAYLOAD,2022-10-30 22:00:01,15.73131062,0.0002984,53.2142,356.8587,12.4082,295.776,0.00038347,0.00053389,0.0,0 STARLINK-4717,1 53705U 22107F   22303.91668981  .00053389  00000-0  38347-3 0  9996,2 53705  53.2142 356.8587 0002984  12.4082 295.7760 15.73131062  1300,6728.092,91.537,351.964,347.949,0.0
53705.0,STARLINK-4717,PAYLOAD,2022-10-31 14:00:01,15.73170525,0.0003269,53.2144,353.5616,10.7975,115.1249,-0.00016062,-0.00023082,0.0,0 STARLINK-4717,1 53705U 22107F   22304.58334491 -.00023082  00000-0 -16062-3 0  9995,2 53705  53.2144 353.5616 0003269  10.7975 115.1249 15.73170525  1302,6727.979,91.535,352.0440000000001,347.645,0.0
53705.0,STARLINK-4717,PAYLOAD,2022-10-31 22:00:01,15.73160425,0.000312,53.2148,351.9099,13.2384,201.6462,0.00025022,0.00034587,0.0,0 STARLINK-4717,1 53705U 22107F   22304.91668981  .00034587  00000-0  25022-3 0  9992,2 53705  53.2148 351.9099 0003120  13.2384 201.6462 15.73160425  1307,6728.0080000000025,91.535,351.972,347.774,0.0
53705.0,STARLINK-4717,PAYLOAD,2022-11-01 14:00:01,15.73289385,0.0003395,53.2144,348.6127,8.1718,24.4902,-0.0003671,-0.00052041,0.0,0 STARLINK-4717,1 53705U 22107F   22305.58334491 -.00052041  00000-0 -36710-3 0  9995,2 53705  53.2144 348.6127 0003395   8.1718  24.4902 15.73289385  1303,6727.64,91.528,351.789,347.221,0.0
53705.0,STARLINK-4717,PAYLOAD,2022-11-01 22:00:00,15.73235624,0.0003105,53.2143,346.961,5.5621,116.1315,-0.00056456,-0.00079257,0.0,0 STARLINK-4717,1 53705U 22107F   22305.91667824 -.00079257  00000-0 -56456-3 0  9998,2 53705  53.2143 346.9610 0003105   5.5621 116.1315 15.73235624  1307,6727.794,91.531,351.74800000000016,347.57,0.0
53705.0,STARLINK-4717,PAYLOAD,2022-11-02 06:00:00,15.73199752,0.0003151999999999,53.2145,345.3121,5.7019,204.926,-0.00063239,-0.00088474,0.0,0 STARLINK-4717,1 53705U 22107F   22306.25001157 -.00088474  00000-0 -63239-3 0  9995,2 53705  53.2145 345.3121 0003152   5.7019 204.9260 15.73199752  9274,6727.896,91.533,351.88199999999995,347.64,0.0
53705.0,STARLINK-4717,PAYLOAD,2022-11-02 14:00:01,15.73098289,0.0003478,53.2151,343.6651,4.9086,294.617,0.0008397,0.00118407,0.0,0 STARLINK-4717,1 53705U 22107F   22306.58334491  .00118407  00000-0  83970-3 0  9993,2 53705  53.2151 343.6651 0003478   4.9086 294.6170 15.73098289  1301,6728.185,91.539,352.39,347.71,0.0
53705.0,STARLINK-4717,PAYLOAD,2022-11-02 22:00:00,15.73140997,0.0003212,53.2147,342.0125,5.8924,22.4727,0.00076015,0.00107179,0.0,0 STARLINK-4717,1 53705U 22107F   22306.91667824  .00107179  00000-0  76015-3 0  9995,2 53705  53.2147 342.0125 0003212   5.8924  22.4727 15.73140997  9387,6728.063,91.537,352.089,347.767,0.0
53705.0,STARLINK-4717,PAYLOAD,2022-11-03 14:00:01,15.73239343,0.0003546999999999,53.2141,338.7153,6.2327,200.0314,0.00014719,0.00020124,0.0,0 STARLINK-4717,1 53705U 22107F   22307.58334491  .00020124  00000-0  14719-3 0  9997,2 53705  53.2141 338.7153 0003547   6.2327 200.0314 15.73239343  1301,6727.783,91.531,352.034,347.26199999999994,0.0
53705.0,STARLINK-4717,PAYLOAD,2022-11-03 22:00:00,15.73214105,0.000331,53.2141,337.0637,8.6703,286.591,0.0001639,0.0002246,0.0,0 STARLINK-4717,1 53705U 22107F   22307.91667824  .00022460  00000-0  16390-3 0  9995,2 53705  53.2141 337.0637 0003310   8.6703 286.5910 15.73214105  1302,6727.855,91.532,351.94699999999995,347.49300000000005,0.0
53705.0,STARLINK-4717,PAYLOAD,2022-11-04 06:00:00,15.73258996,0.0003376,53.2142,335.4151,9.8033,14.4072,-0.00070434,-0.00098608,0.0,0 STARLINK-4717,1 53705U 22107F   22308.25001157 -.00098608  00000-0 -70434-3 0  9992,2 53705  53.2142 335.4151 0003376   9.8033  14.4072 15.73258996  9599,6727.727,91.53,351.86300000000006,347.321,0.0
53705.0,STARLINK-4717,PAYLOAD,2022-11-04 14:00:01,15.73304511,0.0003706,53.2158,333.7677,7.6813,105.4678,-0.0027625,-0.00373531,0.0,0 STARLINK-4717,1 53705U 22107F   22308.58334491 -.00373531  00000-0 -27625-2 0  9992,2 53705  53.2158 333.7677 0003706   7.6813 105.4678 15.73304511  1308,6727.597,91.527,351.955,346.969,0.0
53705.0,STARLINK-4717,PAYLOAD,2022-11-04 22:00:01,15.73180002,0.0003352,53.2142,332.1145,4.1473,198.0701,-0.00028311,-0.00040146,0.0,0 STARLINK-4717,1 53705U 22107F   22308.91668981 -.00040146  00000-0 -28311-3 0  9990,2 53705  53.2142 332.1145 0003352   4.1473 198.0701 15.73180002  9697,6727.9519999999975,91.534,352.07199999999995,347.56199999999984,0.0
53705.0,STARLINK-4717,PAYLOAD,2022-11-05 14:00:01,15.73052635,0.0003717,53.2136,328.8175,4.6399,15.286,0.00066052,0.00092543,0.0,0 STARLINK-4717,1 53705U 22107F   22309.58335648  .00092543  00000-0  66052-3 0  9995,2 53705  53.2136 328.8175 0003717   4.6399  15.2860 15.73052635  9801,6728.315,91.542,352.681,347.67900000000014,0.0
53705.0,STARLINK-4717,PAYLOAD,2022-11-05 22:00:01,15.73207163,0.000338,53.2135,327.1661,9.6145,99.219,0.00020326,0.00028014,0.0,0 STARLINK-4717,1 53705U 22107F   22309.91668981  .00028014  00000-0  20326-3 0  9997,2 53705  53.2135 327.1661 0003380   9.6145  99.2190 15.73207163  9853,6727.875,91.533,352.014,347.466,0.0
53705.0,STARLINK-4717,PAYLOAD,2022-11-06 14:00:01,15.73222084,0.0003613,53.2133,323.8686,3.9552,282.6921,-0.0001751,-0.00025157,0.0,0 STARLINK-4717,1 53705U 22107F   22310.58334491 -.00025157  00000-0 -17510-3 0  9996,2 53705  53.2133 323.8686 0003613   3.9552 282.6921 15.73222084  1300,6727.831999999999,91.532,352.12800000000016,347.266,0.0
53705.0,STARLINK-4717,PAYLOAD,2022-11-07 08:00:01,15.73236903,0.0003406,53.2154,320.1564,6.4181,210.3391,-0.00042158,-0.00059487,0.0,0 STARLINK-4717,1 53705U 22107F   22311.33334491 -.00059487  00000-0 -42158-3 0  9999,2 53705  53.2154 320.1564 0003406   6.4181 210.3391 15.73236903 10072,6727.79,91.531,351.946,347.36300000000006,0.0
53705.0,STARLINK-4717,PAYLOAD,2022-11-07 14:00:01,15.73325182,0.0003168,53.2156,318.9186,356.0234,197.4434,-0.0047758,-0.00626938,0.0,0 STARLINK-4717,1 53705U 22107F   22311.58334491 -.00626938  00000-0 -47758-2 0  9997,2 53705  53.2156 318.9186 0003168 356.0234 197.4434 15.73325182 10113,6727.538000000001,91.526,351.535,347.272,0.0
53705.0,STARLINK-4717,PAYLOAD,2022-11-07 22:00:00,15.73087956,0.0003088,53.2171,317.2664,307.645,334.5876,-0.009084,-0.01133275,0.0,0 STARLINK-4717,1 53705U 22107F   22311.91667824 -.01133275  00000-0 -90840-2 0  9991,2 53705  53.2171 317.2664 0003088 307.6450 334.5876 15.73087956  1305,6728.215,91.54,352.157,348.00199999999984,0.0
53705.0,STARLINK-4717,PAYLOAD,2022-11-08 00:00:02,15.727314000000002,0.000328,53.2164,316.8541,312.4589,82.0782,-0.0073723999999999,-0.00911605,0.0,0 STARLINK-4717,1 53705U 22107F   22312.00002315 -.00911605  00000-0 -73724-2 0  9992,2 53705  53.2164 316.8541 0003280 312.4589  82.0782 15.72731400 10183,6729.232,91.56,353.30400000000014,348.889,0.0
53705.0,STARLINK-4717,PAYLOAD,2022-11-08 10:00:01,15.71869329,0.0005618999999999,53.2174,314.797,277.302,317.0608,-0.0095758,-0.01135194,0.0,0 STARLINK-4717,1 53705U 22107F   22312.41668981 -.01135194  00000-0 -95758-2 0  9997,2 53705  53.2174 314.7970 0005619 277.3020 317.0608 15.71869329 10240,6731.691999999999,91.611,357.339,349.774,0.0
53705.0,STARLINK-4717,PAYLOAD,2022-11-08 14:00:01,15.71453792,0.0005904,53.2162,313.9738,279.413,178.4198,-0.0095784,-0.01117805,0.0,0 STARLINK-4717,1 53705U 22107F   22312.58334491 -.01117805  00000-0 -95784-2 0  9999,2 53705  53.2162 313.9738 0005904 279.4130 178.4198 15.71453792  1305,6732.878000000002,91.635,358.718,350.76800000000014,0.0
53705.0,STARLINK-4717,PAYLOAD,2022-11-08 22:00:00,15.70645777,0.0006747,53.2172,312.3273,270.5379,273.6285,-0.010041,-0.01131353,0.0,0 STARLINK-4717,1 53705U 22107F   22312.91667824 -.01131353  00000-0 -10041-1 0  9991,2 53705  53.2172 312.3273 0006747 270.5379 273.6285 15.70645777  1306,6735.187,91.682,361.596,352.5080000000001,0.0
